{
  "norad_id": 57885,
  "name": "STARLINK-30279",
  "history": [
    {
      "epoch": "2026-03-28T14:26:02.110848Z",
      "apogee_km": 483.83845018573174,
      "perigee_km": 482.22195919230853,
      "latitude_deg": -3.448195550718016e-05,
      "longitude_deg": 135.5315522018376,
      "height_km": 482.5515634830009,
      "semi_major_axis_km": 6861.16720468902,
      "eccentricity": 0.0001178,
      "inclination_deg": 43.0019,
      "raan_deg": 178.0599,
      "arg_perigee_deg": 288.4174,
      "mean_anomaly_deg": 71.6549,
      "mean_motion_rev_day": 15.27586309
    }
  ]
}